NORAD_CAT_ID,OBJECT_NAME,OBJECT_TYPE,EPOCH,MEAN_MOTION,ECCENTRICITY,INCLINATION,RA_OF_ASC_NODE,ARG_OF_PERICENTER,MEAN_ANOMALY,BSTAR,MEAN_MOTION_DOT,MEAN_MOTION_DDOT,TLE_LINE0,TLE_LINE1,TLE_LINE2,SEMIMAJOR_AXIS,PERIOD,APOGEE,PERIGEE,DECAYED
51804.0,STARLINK-3601,PAYLOAD,2022-04-04 22:00:00,15.73212741,0.0001193,53.2176,314.1565,77.0774,94.0872,-0.00020962,-0.00029949,0.0,0 STARLINK-3601,1 51804U 22017AN  22094.91667824 -.00029949  00000-0 -20962-3 0  9997,2 51804  53.2176 314.1565 0001193  77.0774  94.0872 15.73212741  3708,6727.859,91.532,350.526,348.921,0.0
51804.0,STARLINK-3601,PAYLOAD,2022-04-05 04:00:00,15.73168853,0.0001081,53.2174,312.9192,73.4456,74.4106,0.00037425,0.0005216,0.0,0 STARLINK-3601,1 51804U 22017AN  22095.16667824  .00052160  00000-0  37425-3 0  9996,2 51804  53.2174 312.9192 0001081  73.4456  74.4106 15.73168853  7341,6727.984,91.535,350.576,349.122,0.0
51804.0,STARLINK-3601,PAYLOAD,2022-04-05 12:00:00,15.732161800000002,0.0001158,53.2175,311.2678,85.6919,151.0755,-0.00032072,-0.00045418,0.0,0 STARLINK-3601,1 51804U 22017AN  22095.50001157 -.00045418  00000-0 -32072-3 0  9998,2 51804  53.2175 311.2678 0001158  85.6919 151.0755 15.73216180  7391,6727.849,91.532,350.49300000000005,348.935,0.0
51804.0,STARLINK-3601,PAYLOAD,2022-04-05 14:00:01,15.73229213,0.0001261,53.2177,310.8555,85.6608,263.4021,-0.00066261,-0.00092709,0.0,0 STARLINK-3601,1 51804U 22017AN  22095.58335648 -.00092709  00000-0 -66261-3 0  9993,2 51804  53.2177 310.8555 0001261  85.6608 263.4021 15.73229213  3708,6727.812,91.531,350.525,348.829,0.0
51804.0,STARLINK-3601,PAYLOAD,2022-04-05 22:00:00,15.73128389,0.0001492,53.2174,309.2082,77.3564,0.5841,0.0004373,0.00061011,0.0,0 STARLINK-3601,1 51804U 22017AN  22095.91667824  .00061011  00000-0  43730-3 0  9990,2 51804  53.2174 309.2082 0001492  77.3564   0.5841 15.73128389  3709,6728.099,91.537,350.968,348.961,0.0
51804.0,STARLINK-3601,PAYLOAD,2022-04-06 04:00:00,15.73204631,0.0001386999999999,53.2166,307.9707,75.1423,339.4442,-0.0001522,-0.00021929,0.0,0 STARLINK-3601,1 51804U 22017AN  22096.16667824 -.00021929  00000-0 -15220-3 0  9997,2 51804  53.2166 307.9707 0001387  75.1423 339.4442 15.73204631  7500,6727.882,91.533,350.68,348.814,0.0
51804.0,STARLINK-3601,PAYLOAD,2022-04-06 14:00:01,15.73157473,0.0001125,53.2172,305.9072,88.736,166.9932,0.00060731,0.00085325,0.0,0 STARLINK-3601,1 51804U 22017AN  22096.58334491  .00085325  00000-0  60731-3 0  9999,2 51804  53.2172 305.9072 0001125  88.7360 166.9932 15.73157473  3706,6728.016,91.536,350.63800000000015,349.125,0.0
51804.0,STARLINK-3601,PAYLOAD,2022-04-06 20:00:01,15.73231251,0.0001026,53.2172,304.672,75.5694,156.8372,-0.00040368,-0.00056965,0.0,0 STARLINK-3601,1 51804U 22017AN  22096.83334491 -.00056965  00000-0 -40368-3 0  9991,2 51804  53.2172 304.6720 0001026  75.5694 156.8372 15.73231251  7602,6727.806,91.531,350.361,348.981,0.0
51804.0,STARLINK-3601,PAYLOAD,2022-04-06 22:00:00,15.73222438,0.0001001,53.2174,304.2599,71.8431,272.8016,-0.0003532,-0.00049941,0.0,0 STARLINK-3601,1 51804U 22017AN  22096.91667824 -.00049941  00000-0 -35320-3 0  9997,2 51804  53.2174 304.2599 0001001  71.8431 272.8016 15.73222438  3691,6727.831,91.532,350.37,349.023,0.0
51804.0,STARLINK-3601,PAYLOAD,2022-04-07 04:00:00,15.73188204,8.340000000000001e-05,53.2172,303.0222,64.6641,256.6939,0.00026921,0.0003731,0.0,0 STARLINK-3601,1 51804U 22017AN  22097.16667824  .00037310  00000-0  26921-3 0  9997,2 51804  53.2172 303.0222 0000834  64.6641 256.6939 15.73188204  7662,6727.929,91.534,350.355,349.233,0.0
51804.0,STARLINK-3601,PAYLOAD,2022-04-07 14:00:01,15.73239777,9.6e-05,53.2175,300.959,79.4693,83.0567,-0.00024016,-0.00034243,0.0,0 STARLINK-3601,1 51804U 22017AN  22097.58334491 -.00034243  00000-0 -24016-3 0  9991,2 51804  53.2175 300.9590 0000960  79.4693  83.0567 15.73239777  3702,6727.781999999997,91.531,350.293,349.001,0.0
51804.0,STARLINK-3601,PAYLOAD,2022-04-07 22:00:00,15.73236068,0.0001223,53.2172,299.3116,67.4273,184.0671,-0.00018708,-0.00026832,0.0,0 STARLINK-3601,1 51804U 22017AN  22097.91667824 -.00026832  00000-0 -18708-3 0  9993,2 51804  53.2172 299.3116 0001223  67.4273 184.0671 15.73236068  3683,6727.792,91.531,350.48,348.835,0.0
51804.0,STARLINK-3601,PAYLOAD,2022-04-08 04:00:00,15.73214977,0.000125,53.2165,298.0736,69.6109,158.6168,0.00015418,0.00021086,0.0,0 STARLINK-3601,1 51804U 22017AN  22098.16667824  .00021086  00000-0  15418-3 0  9990,2 51804  53.2165 298.0736 0001250  69.6109 158.6168 15.73214977  7813,6727.852,91.532,350.55800000000005,348.876,0.0
51804.0,STARLINK-3601,PAYLOAD,2022-04-08 14:00:03,15.73292043,0.0001284999999999,53.217,296.0104,81.071,348.4885,-0.0005735,-0.00080655,0.0,0 STARLINK-3601,1 51804U 22017AN  22098.58336806 -.00080655  00000-0 -57350-3 0  9999,2 51804  53.2170 296.0104 0001285  81.0710 348.4885 15.73292043  3709,6727.6330000000025,91.528,350.362,348.6330000000001,0.0
51804.0,STARLINK-3601,PAYLOAD,2022-04-08 20:00:01,15.73228212,0.0001256,53.217,294.7752,71.1603,335.0146,-0.00060452,-0.00084712,0.0,0 STARLINK-3601,1 51804U 22017AN  22098.83334491 -.00084712  00000-0 -60452-3 0  9990,2 51804  53.2170 294.7752 0001256  71.1603 335.0146 15.73228212  7929,6727.815,91.532,350.525,348.835,0.0
51804.0,STARLINK-3601,PAYLOAD,2022-04-08 22:00:00,15.73193049,0.0001225,53.2172,294.3631,67.1913,91.2282,-0.00025816,-0.00036682,0.0,0 STARLINK-3601,1 51804U 22017AN  22098.91667824 -.00036682  00000-0 -25816-3 0  9996,2 51804  53.2172 294.3631 0001225  67.1913  91.2282 15.73193049  3677,6727.915,91.534,350.60400000000016,348.956,0.0
51804.0,STARLINK-3601,PAYLOAD,2022-04-09 04:00:00,15.73201912,0.0001062,53.2169,293.1251,63.7138,71.3936,-0.00056457,-0.00079116,0.0,0 STARLINK-3601,1 51804U 22017AN  22099.16667824 -.00079116  00000-0 -56457-3 0  9998,2 51804  53.2169 293.1251 0001062  63.7138  71.3936 15.73201912  7979,6727.89,91.533,350.469,349.04,0.0
51804.0,STARLINK-3601,PAYLOAD,2022-04-09 14:00:01,15.73127608,0.0001164,53.2171,291.0625,73.7596,262.4374,0.0003534,0.00049114,0.0,0 STARLINK-3601,1 51804U 22017AN  22099.58334491  .00049114  00000-0  35340-3 0  9996,2 51804  53.2171 291.0625 0001164  73.7596 262.4374 15.73127608  3701,6728.102,91.537,350.75,349.18300000000005,0.0
51804.0,STARLINK-3601,PAYLOAD,2022-04-09 20:00:01,15.73163524,0.0001262,53.2167,289.8271,62.4319,250.4258,0.00049368,0.00069128,0.0,0 STARLINK-3601,1 51804U 22017AN  22099.83334491  .00069128  00000-0  49368-3 0  9996,2 51804  53.2167 289.8271 0001262  62.4319 250.4258 15.73163524  8086,6727.999,91.535,350.713,349.015,0.0
51804.0,STARLINK-3601,PAYLOAD,2022-04-09 22:00:00,15.7315838,0.0001236,53.2167,289.4152,60.5647,4.5206,0.00078212,0.001104,0.0,0 STARLINK-3601,1 51804U 22017AN  22099.91667824  .00110400  00000-0  78212-3 0  9994,2 51804  53.2167 289.4152 0001236  60.5647   4.5206 15.73158380  3703,6728.014,91.536,350.71,349.047,0.0
51804.0,STARLINK-3601,PAYLOAD,2022-04-10 14:00:01,15.73317612,0.0001148,53.2164,286.1143,72.2878,170.7126,-0.00059241,-0.00083357,0.0,0 STARLINK-3601,1 51804U 22017AN  22100.58334491 -.00083357  00000-0 -59241-3 0  9994,2 51804  53.2164 286.1143 0001148  72.2878 170.7126 15.73317612  3704,6727.56,91.526,350.19699999999995,348.653,0.0
51804.0,STARLINK-3601,PAYLOAD,2022-04-10 20:00:01,15.73273738,0.00013,53.2164,284.8788,59.7599,160.0092,-0.00050466,-0.00071073,0.0,0 STARLINK-3601,1 51804U 22017AN  22100.83334491 -.00071073  00000-0 -50466-3 0  9994,2 51804  53.2164 284.8788 0001300  59.7599 160.0092 15.73273738  8231,6727.685,91.529,350.425,348.675,0.0
51804.0,STARLINK-3601,PAYLOAD,2022-04-10 22:00:00,15.73243795,0.0001281,53.2165,284.4666,57.6581,274.3688,-0.00020429,-0.00029245,0.0,0 STARLINK-3601,1 51804U 22017AN  22100.91667824 -.00029245  00000-0 -20429-3 0  9992,2 51804  53.2165 284.4666 0001281  57.6581 274.3688 15.73243795  3717,6727.77,91.531,350.497,348.773,0.0
51804.0,STARLINK-3601,PAYLOAD,2022-04-11 14:00:01,15.73450392,0.0001159,53.2172,281.1588,53.0814,96.7768,-0.0056972,-0.00741187,0.0,0 STARLINK-3601,1 51804U 22017AN  22101.58334491 -.00741187  00000-0 -56972-2 0  9994,2 51804  53.2172 281.1588 0001159  53.0814  96.7768 15.73450392  3690,6727.181,91.519,349.826,348.267,0.0
51804.0,STARLINK-3601,PAYLOAD,2022-04-11 20:00:01,15.73151592,0.0001165,53.2161,279.9302,47.0901,79.5031,0.00046177,0.00064551,0.0,0 STARLINK-3601,1 51804U 22017AN  22101.83334491  .00064551  00000-0  46177-3 0  9990,2 51804  53.2161 279.9302 0001165  47.0901  79.5031 15.73151592  8398,6728.033,91.536,350.682,349.11400000000015,0.0
51804.0,STARLINK-3601,PAYLOAD,2022-04-11 22:00:00,15.73141922,0.0001189,53.216,279.5181,43.2658,195.553,0.00078058,0.001101,0.0,0 STARLINK-3601,1 51804U 22017AN  22101.91667824  .00110100  00000-0  78058-3 0  9993,2 51804  53.2160 279.5181 0001189  43.2658 195.5530 15.73141922  3698,6728.061,91.537,350.726,349.126,0.0
51804.0,STARLINK-3601,PAYLOAD,2022-04-12 12:00:00,15.73222741,0.0001169,53.2158,276.6292,61.5301,242.8881,-0.00038835,-0.0005482,0.0,0 STARLINK-3601,1 51804U 22017AN  22102.50001157 -.00054820  00000-0 -38835-3 0  9997,2 51804  53.2158 276.6292 0001169  61.5301 242.8881 15.73222741  8501,6727.83,91.532,350.482,348.909,0.0
51804.0,STARLINK-3601,PAYLOAD,2022-04-12 14:00:01,15.73227225,0.0001255,53.2158,276.2175,59.1383,357.5134,-0.00061682,-0.00086402,0.0,0 STARLINK-3601,1 51804U 22017AN  22102.58334491 -.00086402  00000-0 -61682-3 0  9992,2 51804  53.2158 276.2175 0001255  59.1383 357.5134 15.73227225  3711,6727.818,91.532,350.527,348.838,0.0
51804.0,STARLINK-3601,PAYLOAD,2022-04-12 22:00:00,15.731253099999998,0.0001466,53.2158,274.5697,52.092,93.4823,0.00078211,0.00110241,0.0,0 STARLINK-3601,1 51804U 22017AN  22102.91667824  .00110241  00000-0  78211-3 0  9991,2 51804  53.2158 274.5697 0001466  52.0920  93.4823 15.73125310  3683,6728.108,91.538,350.959,348.987,0.0
